NORAD_CAT_ID,OBJECT_NAME,OBJECT_TYPE,EPOCH,MEAN_MOTION,ECCENTRICITY,INCLINATION,RA_OF_ASC_NODE,ARG_OF_PERICENTER,MEAN_ANOMALY,BSTAR,MEAN_MOTION_DOT,MEAN_MOTION_DDOT,TLE_LINE0,TLE_LINE1,TLE_LINE2,SEMIMAJOR_AXIS,PERIOD,APOGEE,PERIGEE,DECAYED
53998.0,STARLINK-5128,PAYLOAD,2023-09-30 05:12:03,15.08852399,0.0001386,53.2162,255.8676,93.1351,266.98,0.00018248,2.618e-05,0.0,0 STARLINK-5128,1 53998U 22125AL  23273.21670358  .00002618  00000-0  18248-3 0  9998,2 53998  53.2162 255.8676 0001386  93.1351 266.9800 15.08852399 54880,6917.842,95.437,540.666,538.749,0.0
53998.0,STARLINK-5128,PAYLOAD,2023-10-01 05:02:50,15.08841922,0.0001372,53.2152,251.4094,107.3828,252.7314,3.881e-05,3.3e-06,0.0,0 STARLINK-5128,1 53998U 22125AL  23274.21031234  .00000330  00000-0  38810-4 0  9990,2 53998  53.2152 251.4094 0001372 107.3828 252.7314 15.08841922 55106,6917.875,95.437,540.689,538.79,0.0
53998.0,STARLINK-5128,PAYLOAD,2023-10-01 16:10:32,15.08836905,0.0001313,53.2137,249.3268,118.1013,242.0112,-4.6024e-05,-1.02e-05,0.0,0 STARLINK-5128,1 53998U 22125AL  23274.67399193 -.00001020  00000-0 -46024-4 0  9996,2 53998  53.2137 249.3268 0001313 118.1013 242.0112 15.08836905 55102,6917.89,95.438,540.663,538.847,0.0
53998.0,STARLINK-5128,PAYLOAD,2023-10-02 04:53:38,15.08838029,0.0001737,53.2168,246.9498,97.6456,262.4733,1.052e-05,-1.21e-06,0.0,0 STARLINK-5128,1 53998U 22125AL  23275.20391681 -.00000121  00000-0  10520-4 0  9992,2 53998  53.2168 246.9498 0001737  97.6456 262.4733 15.08838029 55256,6917.886,95.438,540.953,538.55,0.0
53998.0,STARLINK-5128,PAYLOAD,2023-10-03 04:44:25,15.08847645,0.0001494,53.2163,242.4898,101.1016,259.0144,0.00026543,3.94e-05,0.0,0 STARLINK-5128,1 53998U 22125AL  23276.19751207  .00003940  00000-0  26543-3 0  9997,2 53998  53.2163 242.4898 0001494 101.1016 259.0144 15.08847645 55408,6917.857,95.437,540.756,538.688,0.0
53998.0,STARLINK-5128,PAYLOAD,2023-10-03 14:16:44,15.08842399,0.0001478,53.2169,240.7052,99.8549,260.261,9.1139e-05,1.163e-05,0.0,0 STARLINK-5128,1 53998U 22125AL  23276.59495421  .00001163  00000-0  91139-4 0  9993,2 53998  53.2169 240.7052 0001478  99.8549 260.2610 15.08842399 55394,6917.873,95.437,540.761,538.716,0.0
53998.0,STARLINK-5128,PAYLOAD,2023-10-04 07:45:59,15.08836142,0.0002026,53.2159,237.4332,85.4375,274.6848,4.5677e-05,4.39e-06,0.0,0 STARLINK-5128,1 53998U 22125AL  23277.32360141  .00000439  00000-0  45677-4 0  9996,2 53998  53.2159 237.4332 0002026  85.4375 274.6848 15.08836142 55576,6917.892,95.438,541.159,538.356,0.0
53998.0,STARLINK-5128,PAYLOAD,2023-10-04 14:07:31,15.08833073,0.0002047,53.2149,236.2437,85.2268,274.8958,-1.6388e-05,-5.49e-06,0.0,0 STARLINK-5128,1 53998U 22125AL  23277.58856397 -.00000549  00000-0 -16388-4 0  9998,2 53998  53.2149 236.2437 0002047  85.2268 274.8958 15.08833073 55541,6917.902,95.438,541.183,538.35,0.0
53998.0,STARLINK-5128,PAYLOAD,2023-10-05 02:50:36,15.08847972,0.0001593,53.2166,233.867,106.3127,253.8041,6.6219e-05,7.66e-06,0.0,0 STARLINK-5128,1 53998U 22125AL  23278.11847397  .00000766  00000-0  66219-4 0  9995,2 53998  53.2166 233.8670 0001593 106.3127 253.8041 15.08847972 55695,6917.856,95.437,540.823,538.619,0.0
53998.0,STARLINK-5128,PAYLOAD,2023-10-05 07:36:44,15.08859297,0.0001285,53.2153,232.9714,91.305,268.8089,0.00023991,3.534e-05,0.0,0 STARLINK-5128,1 53998U 22125AL  23278.31718685  .00003534  00000-0  23991-3 0  9999,2 53998  53.2153 232.9714 0001285  91.3050 268.8089 15.08859297 55721,6917.821,95.436,540.575,538.797,0.0
53998.0,STARLINK-5128,PAYLOAD,2023-10-05 13:58:18,15.0884123,0.0001836,53.217,231.7836,84.9505,275.1697,8.2415e-05,1.024e-05,0.0,0 STARLINK-5128,1 53998U 22125AL  23278.58215708  .00001024  00000-0  82415-4 0  9995,2 53998  53.2170 231.7836 0001836  84.9505 275.1697 15.08841230 55697,6917.877,95.437,541.012,538.472,0.0
53998.0,STARLINK-5128,PAYLOAD,2023-10-06 13:49:05,15.08841846,0.0001483,53.2162,227.3212,77.3246,282.7911,0.00012994,1.781e-05,0.0,0 STARLINK-5128,1 53998U 22125AL  23279.57575685  .00001781  00000-0  12994-3 0  9992,2 53998  53.2162 227.3212 0001483  77.3246 282.7911 15.08841846 55846,6917.875,95.437,540.766,538.714,0.0
53998.0,STARLINK-5128,PAYLOAD,2023-10-07 00:56:47,15.08834026,0.0001949,53.2162,225.2397,78.676,281.4451,2.1005e-05,4.6e-07,0.0,0 STARLINK-5128,1 53998U 22125AL  23280.03944351  .00000046  00000-0  21005-4 0  9992,2 53998  53.2162 225.2397 0001949  78.6760 281.4451 15.08834026 55981,6917.899,95.438,541.112,538.415,0.0
53998.0,STARLINK-5128,PAYLOAD,2023-10-07 05:42:56,15.08847548,0.0001442,53.2169,224.3485,87.1064,273.0094,3.6291e-05,2.9e-06,0.0,0 STARLINK-5128,1 53998U 22125AL  23280.23815580  .00000290  00000-0  36291-4 0  9999,2 53998  53.2169 224.3485 0001442  87.1064 273.0094 15.08847548 56014,6917.857,95.437,540.72,538.725,0.0
53998.0,STARLINK-5128,PAYLOAD,2023-10-07 13:39:52,15.08841978,0.0001431,53.2165,222.8622,90.3482,269.7674,-2.7499e-05,-7.26e-06,0.0,0 STARLINK-5128,1 53998U 22125AL  23280.56935926 -.00000726  00000-0 -27499-4 0  9998,2 53998  53.2165 222.8622 0001431  90.3482 269.7674 15.08841978 55997,6917.874,95.437,540.729,538.749,0.0
53998.0,STARLINK-5128,PAYLOAD,2023-10-07 20:01:25,15.08834849,0.000183,53.2166,221.6729,82.6381,277.482,4.2839e-05,3.94e-06,0.0,0 STARLINK-5128,1 53998U 22125AL  23280.83432545  .00000394  00000-0  42839-4 0  9991,2 53998  53.2166 221.6729 0001830  82.6381 277.4820 15.08834849 56100,6917.896,95.438,541.027,538.495,0.0
53998.0,STARLINK-5128,PAYLOAD,2023-10-08 02:22:57,15.08847393,0.000123,53.2148,220.4833,92.9183,267.195,8.094e-05,1.001e-05,0.0,0 STARLINK-5128,1 53998U 22125AL  23281.09927768  .00001001  00000-0  80940-4 0  9997,2 53998  53.2148 220.4833 0001230  92.9183 267.1950 15.08847393 56143,6917.858,95.437,540.574,538.872,0.0
53998.0,STARLINK-5128,PAYLOAD,2023-10-08 13:30:40,15.08835182,0.0001821,53.2167,218.401,86.6378,273.4823,1.3264e-05,-7.7e-07,0.0,0 STARLINK-5128,1 53998U 22125AL  23281.56296588 -.00000077  00000-0  13264-4 0  9996,2 53998  53.2167 218.4010 0001821  86.6378 273.4823 15.08835182 56142,6917.895,95.438,541.02,538.5,0.0
53998.0,STARLINK-5128,PAYLOAD,2023-10-08 19:52:12,15.08834367,7.66e-05,53.2166,217.2123,86.7467,273.3612,0.00017439,2.488e-05,0.0,0 STARLINK-5128,1 53998U 22125AL  23281.82792387  .00002488  00000-0  17439-3 0  9997,2 53998  53.2166 217.2123 0000766  86.7467 273.3612 15.08834367 56183,6917.898,95.438,540.293,539.233,0.0
53998.0,STARLINK-5128,PAYLOAD,2023-10-09 02:13:44,15.08856434,0.0001186,53.2157,216.0218,94.6845,265.4282,0.00026394,3.917e-05,0.0,0 STARLINK-5128,1 53998U 22125AL  23282.09287343  .00003917  00000-0  26394-3 0  9996,2 53998  53.2157 216.0218 0001186  94.6845 265.4282 15.08856434 56296,6917.83,95.437,540.516,538.875,0.0
53998.0,STARLINK-5128,PAYLOAD,2023-10-10 02:04:32,15.08841665,0.0001226,53.2155,211.5604,93.4571,266.6562,7.08e-05,8.39e-06,0.0,0 STARLINK-5128,1 53998U 22125AL  23283.08648236  .00000839  00000-0  70800-4 0  9990,2 53998  53.2155 211.5604 0001226  93.4571 266.6562 15.08841665 56442,6917.875,95.437,540.588,538.892,0.0
53998.0,STARLINK-5128,PAYLOAD,2023-10-10 05:15:18,15.08844343,0.0001236,53.2155,210.9654,95.7986,264.3147,0.00013994,1.94e-05,0.0,0 STARLINK-5128,1 53998U 22125AL  23283.21896147  .00001940  00000-0  13994-3 0  9995,2 53998  53.2155 210.9654 0001236  95.7986 264.3147 15.08844343 56390,6917.867,95.437,540.587,538.877,0.0
53998.0,STARLINK-5128,PAYLOAD,2023-10-11 00:19:56,15.08833439,0.0001214,53.2163,207.3971,91.9434,268.1698,1.9405e-05,2.1e-07,0.0,0 STARLINK-5128,1 53998U 22125AL  23284.01384905  .00000021  00000-0  19405-4 0  9991,2 53998  53.2163 207.3971 0001214  91.9434 268.1698 15.08833439 56581,6917.9,95.438,540.605,538.926,0.0
53998.0,STARLINK-5128,PAYLOAD,2023-10-11 05:06:05,15.08837442,0.0001287,53.2166,206.5037,101.7905,258.3231,7.7155e-05,9.4e-06,0.0,0 STARLINK-5128,1 53998U 22125AL  23284.21256790  .00000940  00000-0  77155-4 0  9999,2 53998  53.2166 206.5037 0001287 101.7905 258.3231 15.08837442 56549,6917.888,95.438,540.644,538.863,0.0
53998.0,STARLINK-5128,PAYLOAD,2023-10-12 03:21:30,15.08840199,0.0001228,53.2167,202.3447,88.9807,271.1326,0.00013942,1.932e-05,0.0,0 STARLINK-5128,1 53998U 22125AL  23285.13993273  .00001932  00000-0  13942-3 0  9990,2 53998  53.2167 202.3447 0001228  88.9807 271.1326 15.08840199 56755,6917.88,95.438,540.594,538.895,0.0
53998.0,STARLINK-5128,PAYLOAD,2023-10-12 11:18:25,15.08842504,0.000127,53.2168,200.8575,83.8904,276.2233,0.00021813,3.186e-05,0.0,0 STARLINK-5128,1 53998U 22125AL  23285.47113277  .00003186  00000-0  21813-3 0  9994,2 53998  53.2168 200.8575 0001270  83.8904 276.2233 15.08842504 56733,6917.873,95.437,540.616,538.859,0.0
53998.0,STARLINK-5128,PAYLOAD,2023-10-12 22:26:07,15.0884128,0.0001347,53.2177,198.7779,100.9684,259.146,0.00013844,1.916e-05,0.0,0 STARLINK-5128,1 53998U 22125AL  23285.93481420  .00001916  00000-0  13844-3 0  9997,2 53998  53.2177 198.7779 0001347 100.9684 259.1460 15.08841280 56805,6917.876,95.437,540.673,538.81,0.0
53998.0,STARLINK-5128,PAYLOAD,2023-10-13 04:47:39,15.08855912,0.0001143,53.2159,197.5857,100.5059,259.6062,0.00027873,4.153e-05,0.0,0 STARLINK-5128,1 53998U 22125AL  23286.19976322  .00004153  00000-0  27873-3 0  9999,2 53998  53.2159 197.5857 0001143 100.5059 259.6062 15.08855912 56917,6917.832,95.437,540.487,538.906,0.0
53998.0,STARLINK-5128,PAYLOAD,2023-10-13 11:09:12,15.08847001,7.19e-05,53.2167,196.3948,81.0284,279.079,0.00018707,2.691e-05,0.0,0 STARLINK-5128,1 53998U 22125AL  23286.46472654  .00002691  00000-0  18707-3 0  9999,2 53998  53.2167 196.3948 0000719  81.0284 279.0790 15.08847001 56953,6917.859,95.437,540.221,539.227,0.0
53998.0,STARLINK-5128,PAYLOAD,2023-10-13 22:16:54,15.08841808,0.0001011,53.2172,194.3174,81.1774,278.9333,-1.56e-05,-5.36e-06,0.0,0 STARLINK-5128,1 53998U 22125AL  23286.92841044 -.00000536  00000-0 -15600-4 0  9991,2 53998  53.2172 194.3174 0001011  81.1774 278.9333 15.08841808 56959,6917.875,95.437,540.439,539.04,0.0
